STARLINK-5402           
1 54869U 22177BB  26015.47764396 -.00000114  00000+0  66428-5 0  9998
2 54869  43.0053  49.2192 0001380 273.8976  86.1708 15.02532562169108
STARLINK-5401           
1 54870U 22177BC  26015.46987217  .00000199  00000+0  29831-4 0  9996
2 54870  43.0049  49.1595 0001418 272.4798  87.5882 15.02534660169109
STARLINK-5397           
1 54871U 22177BD  26015.41228463 -.00001333  00000+0 -83647-4 0  9991
2 54871  43.0049  49.5878 0001432 267.7698  92.2980 15.02536058169093
STARLINK-5390           
1 54872U 22177BE  26016.00002315  .01034581  00000+0  45127-2 0  9993
2 54872  43.0010  29.9783 0000686 247.1176  84.9945 15.81637104  5541
STARLINK-5091           
1 54873U 22177BF  26015.13193370  .00000619  00000+0  60874-4 0  9991
2 54873  43.0038  50.9235 0000999 265.0375  95.0353 15.02536150169050
STARLINK-5277           
1 55269U 23010A   26015.88099208  .00000637  00000+0  61206-4 0  9995
2 55269  70.0000 177.6860 0002979 275.2525  84.8294 14.98325459165159
STARLINK-5306           
1 55271U 23010C   26015.88515924 -.00000265  00000+0 -14415-4 0  9995
2 55271  70.0006 177.7021 0002839 268.8782  91.2051 14.98326926164877
STARLINK-5310           
1 55272U 23010D   26015.80169846  .00000375  00000+0  39239-4 0  9997
2 55272  70.0002 177.8141 0003111 271.1083  88.9719 14.98331682164861
STARLINK-5291           
1 55273U 23010E   26015.84341701 -.00000102  00000+0 -79343-6 0  9996
2 55273  70.0004 177.5587 0002871 271.2619  88.8211 14.98327429164874
STARLINK-5236           
1 55274U 23010F   26015.80565419 -.00001679  00000+0 -13296-3 0  9999
2 55274  70.0007 157.9574 0003133 271.3559  88.7242 14.98319510165351
STARLINK-5260           
1 55275U 23010G   26015.79746350  .00000965  00000+0  88616-4 0  9997
2 55275  70.0014 157.9299 0003240 274.8776  85.2013 14.98341441165358
STARLINK-5261           
1 55276U 23010H   26015.79730020 -.00000141  00000+0 -40091-5 0  9999
2 55276  70.0003 157.9278 0003201 270.0169  90.0624 14.98332288165345
STARLINK-5299           
1 55277U 23010J   26015.87265139 -.00002179  00000+0 -17496-3 0  9997
2 55277  69.9999 177.6567 0002967 276.5296  83.5525 14.98312691164877
STARLINK-5289           
1 55278U 23010K   26015.78919474  .00000368  00000+0  38608-4 0  9991
2 55278  70.0003 177.7655 0003230 271.0797  88.9992 14.98327130164855
STARLINK-5331           
1 55280U 23010M   26015.89350304  .00000123  00000+0  18116-4 0  9998
2 55280  70.0005 177.7197 0002992 268.4894  91.5922 14.98330368164864
STARLINK-5298           
1 55281U 23010N   26015.79752797 -.00000502  00000+0 -34285-4 0  9998
2 55281  70.0002 177.7949 0002804 269.7804  90.3034 14.98332753164854
