[{"OBJECT_NAME":"STARLINK-5402","OBJECT_ID":"2022-177BB","EPOCH":"2026-01-15T11:27:48.438144","MEAN_MOTION":15.02532562,"ECCENTRICITY":0.00013805,"INCLINATION":43.0053,"RA_OF_ASC_NODE":49.2192,"ARG_OF_PERICENTER":273.8976,"MEAN_ANOMALY":86.1708,"EPHEMERIS_TYPE":0,"CLASSIFICATION_TYPE":"U","NORAD_CAT_ID":54869,"ELEMENT_SET_NO":999,"REV_AT_EPOCH":16910,"BSTAR":6.642843e-6,"MEAN_MOTION_DOT":-1.14e-6,"MEAN_MOTION_DDOT":0},{"OBJECT_NAME":"STARLINK-5401","OBJECT_ID":"2022-177BC","EPOCH":"2026-01-15T11:16:36.955488","MEAN_MOTION":15.0253466,"ECCENTRICITY":0.00014181,"INCLINATION":43.0049,"RA_OF_ASC_NODE":49.1595,"ARG_OF_PERICENTER":272.4798,"MEAN_ANOMALY":87.5882,"EPHEMERIS_TYPE":0,"CLASSIFICATION_TYPE":"U","NORAD_CAT_ID":54870,"ELEMENT_SET_NO":999,"REV_AT_EPOCH":16910,"BSTAR":2.9830728e-5,"MEAN_MOTION_DOT":1.99e-6,"MEAN_MOTION_DDOT":0},{"OBJECT_NAME":"STARLINK-5397","OBJECT_ID":"2022-177BD","EPOCH":"2026-01-15T09:53:41.392032","MEAN_MOTION":15.02536058,"ECCENTRICITY":0.00014326,"INCLINATION":43.0049,"RA_OF_ASC_NODE":49.5878,"ARG_OF_PERICENTER":267.7698,"MEAN_ANOMALY":92.298,"EPHEMERIS_TYPE":0,"CLASSIFICATION_TYPE":"U","NORAD_CAT_ID":54871,"ELEMENT_SET_NO":999,"REV_AT_EPOCH":16909,"BSTAR":-8.364709e-5,"MEAN_MOTION_DOT":-1.333e-5,"MEAN_MOTION_DDOT":0},{"OBJECT_NAME":"STARLINK-5390","OBJECT_ID":"2022-177BE","EPOCH":"2026-01-16T00:00:02.000160","MEAN_MOTION":15.81637104,"ECCENTRICITY":6.86e-5,"INCLINATION":43.001,"RA_OF_ASC_NODE":29.9783,"ARG_OF_PERICENTER":247.1176,"MEAN_ANOMALY":84.9945,"EPHEMERIS_TYPE":0,"CLASSIFICATION_TYPE":"U","NORAD_CAT_ID":54872,"ELEMENT_SET_NO":999,"REV_AT_EPOCH":554,"BSTAR":0.0045127002,"MEAN_MOTION_DOT":0.01034581,"MEAN_MOTION_DDOT":0},{"OBJECT_NAME":"STARLINK-5091","OBJECT_ID":"2022-177BF","EPOCH":"2026-01-15T03:09:59.071680","MEAN_MOTION":15.0253615,"ECCENTRICITY":9.997e-5,"INCLINATION":43.0038,"RA_OF_ASC_NODE":50.9235,"ARG_OF_PERICENTER":265.0375,"MEAN_ANOMALY":95.0353,"EPHEMERIS_TYPE":0,"CLASSIFICATION_TYPE":"U","NORAD_CAT_ID":54873,"ELEMENT_SET_NO":999,"REV_AT_EPOCH":16905,"BSTAR":6.087396e-5,"MEAN_MOTION_DOT":6.19e-6,"MEAN_MOTION_DDOT":0},{"OBJECT_NAME":"STARLINK-5277","OBJECT_ID":"2023-010A","EPOCH":"2026-01-15T21:08:37.715712","MEAN_MOTION":14.98325459,"ECCENTRICITY":0.00029792,"INCLINATION":70,"RA_OF_ASC_NODE":177.686,"ARG_OF_PERICENTER":275.2525,"MEAN_ANOMALY":84.8294,"EPHEMERIS_TYPE":0,"CLASSIFICATION_TYPE":"U","NORAD_CAT_ID":55269,"ELEMENT_SET_NO":999,"REV_AT_EPOCH":16515,"BSTAR":6.1205676e-5,"MEAN_MOTION_DOT":6.37e-6,"MEAN_MOTION_DDOT":0},{"OBJECT_NAME":"STARLINK-5306","OBJECT_ID":"2023-010C","EPOCH":"2026-01-15T21:14:37.758336","MEAN_MOTION":14.98326926,"ECCENTRICITY":0.00028393,"INCLINATION":70.0006,"RA_OF_ASC_NODE":177.7021,"ARG_OF_PERICENTER":268.8782,"MEAN_ANOMALY":91.2051,"EPHEMERIS_TYPE":0,"CLASSIFICATION_TYPE":"U","NORAD_CAT_ID":55271,"ELEMENT_SET_NO":999,"REV_AT_EPOCH":16487,"BSTAR":-1.4415061e-5,"MEAN_MOTION_DOT":-2.65e-6,"MEAN_MOTION_DDOT":0},{"OBJECT_NAME":"STARLINK-5310","OBJECT_ID":"2023-010D","EPOCH":"2026-01-15T19:14:26.746944","MEAN_MOTION":14.98331682,"ECCENTRICITY":0.00031118,"INCLINATION":70.0002,"RA_OF_ASC_NODE":177.8141,"ARG_OF_PERICENTER":271.1083,"MEAN_ANOMALY":88.9719,"EPHEMERIS_TYPE":0,"CLASSIFICATION_TYPE":"U","NORAD_CAT_ID":55272,"ELEMENT_SET_NO":999,"REV_AT_EPOCH":16486,"BSTAR":3.9238648e-5,"MEAN_MOTION_DOT":3.75e-6,"MEAN_MOTION_DDOT":0},{"OBJECT_NAME":"STARLINK-5291","OBJECT_ID":"2023-010E","EPOCH":"2026-01-15T20:14:31.229664","MEAN_MOTION":14.98327429,"ECCENTRICITY":0.00028711,"INCLINATION":70.0004,"RA_OF_ASC_NODE":177.5587,"ARG_OF_PERICENTER":271.2619,"MEAN_ANOMALY":88.8211,"EPHEMERIS_TYPE":0,"CLASSIFICATION_TYPE":"U","NORAD_CAT_ID":55273,"ELEMENT_SET_NO":999,"REV_AT_EPOCH":16487,"BSTAR":-7.93435e-7,"MEAN_MOTION_DOT":-1.02e-6,"MEAN_MOTION_DDOT":0},{"OBJECT_NAME":"STARLINK-5236","OBJECT_ID":"2023-010F","EPOCH":"2026-01-15T19:20:08.522016","MEAN_MOTION":14.9831951,"ECCENTRICITY":0.00031334,"INCLINATION":70.0007,"RA_OF_ASC_NODE":157.9574,"ARG_OF_PERICENTER":271.3559,"MEAN_ANOMALY":88.7242,"EPHEMERIS_TYPE":0,"CLASSIFICATION_TYPE":"U","NORAD_CAT_ID":55274,"ELEMENT_SET_NO":999,"REV_AT_EPOCH":16535,"BSTAR":-0.00013296119,"MEAN_MOTION_DOT":-1.679e-5,"MEAN_MOTION_DDOT":0},{"OBJECT_NAME":"STARLINK-5260","OBJECT_ID":"2023-010G","EPOCH":"2026-01-15T19:08:20.846400","MEAN_MOTION":14.98341441,"ECCENTRICITY":0.00032409,"INCLINATION":70.0014,"RA_OF_ASC_NODE":157.9299,"ARG_OF_PERICENTER":274.8776,"MEAN_ANOMALY":85.2013,"EPHEMERIS_TYPE":0,"CLASSIFICATION_TYPE":"U","NORAD_CAT_ID":55275,"ELEMENT_SET_NO":999,"REV_AT_EPOCH":16535,"BSTAR":8.861602e-5,"MEAN_MOTION_DOT":9.65e-6,"MEAN_MOTION_DDOT":0},{"OBJECT_NAME":"STARLINK-5261","OBJECT_ID":"2023-010H","EPOCH":"2026-01-15T19:08:06.737280","MEAN_MOTION":14.98332288,"ECCENTRICITY":0.00032011,"INCLINATION":70.0003,"RA_OF_ASC_NODE":157.9278,"ARG_OF_PERICENTER":270.0169,"MEAN_ANOMALY":90.0624,"EPHEMERIS_TYPE":0,"CLASSIFICATION_TYPE":"U","NORAD_CAT_ID":55276,"ELEMENT_SET_NO":999,"REV_AT_EPOCH":16534,"BSTAR":-4.009106e-6,"MEAN_MOTION_DOT":-1.41e-6,"MEAN_MOTION_DDOT":0},{"OBJECT_NAME":"STARLINK-5299","OBJECT_ID":"2023-010J","EPOCH":"2026-01-15T20:56:37.080096","MEAN_MOTION":14.98312691,"ECCENTRICITY":0.00029672,"INCLINATION":69.9999,"RA_OF_ASC_NODE":177.6567,"ARG_OF_PERICENTER":276.5296,"MEAN_ANOMALY":83.5525,"EPHEMERIS_TYPE":0,"CLASSIFICATION_TYPE":"U","NORAD_CAT_ID":55277,"ELEMENT_SET_NO":999,"REV_AT_EPOCH":16487,"BSTAR":-0.00017495707,"MEAN_MOTION_DOT":-2.179e-5,"MEAN_MOTION_DDOT":0},{"OBJECT_NAME":"STARLINK-5289","OBJECT_ID":"2023-010K","EPOCH":"2026-01-15T18:56:26.425536","MEAN_MOTION":14.9832713,"ECCENTRICITY":0.000323,"INCLINATION":70.0003,"RA_OF_ASC_NODE":177.7655,"ARG_OF_PERICENTER":271.0797,"MEAN_ANOMALY":88.9992,"EPHEMERIS_TYPE":0,"CLASSIFICATION_TYPE":"U","NORAD_CAT_ID":55278,"ELEMENT_SET_NO":999,"REV_AT_EPOCH":16485,"BSTAR":3.860837e-5,"MEAN_MOTION_DOT":3.68e-6,"MEAN_MOTION_DDOT":0},{"OBJECT_NAME":"STARLINK-5331","OBJECT_ID":"2023-010M","EPOCH":"2026-01-15T21:26:38.662656","MEAN_MOTION":14.98330368,"ECCENTRICITY":0.0002992,"INCLINATION":70.0005,"RA_OF_ASC_NODE":177.7197,"ARG_OF_PERICENTER":268.4894,"MEAN_ANOMALY":91.5922,"EPHEMERIS_TYPE":0,"CLASSIFICATION_TYPE":"U","NORAD_CAT_ID":55280,"ELEMENT_SET_NO":999,"REV_AT_EPOCH":16486,"BSTAR":1.8116086e-5,"MEAN_MOTION_DOT":1.23e-6,"MEAN_MOTION_DDOT":0},{"OBJECT_NAME":"STARLINK-5298","OBJECT_ID":"2023-010N","EPOCH":"2026-01-15T19:08:26.416608","MEAN_MOTION":14.98332753,"ECCENTRICITY":0.00028045,"INCLINATION":70.0002,"RA_OF_ASC_NODE":177.7949,"ARG_OF_PERICENTER":269.7804,"MEAN_ANOMALY":90.3034,"EPHEMERIS_TYPE":0,"CLASSIFICATION_TYPE":"U","NORAD_CAT_ID":55281,"ELEMENT_SET_NO":999,"REV_AT_EPOCH":16485,"BSTAR":-3.4284619e-5,"MEAN_MOTION_DOT":-5.02e-6,"MEAN_MOTION_DDOT":0}]
